STARLINK-1056
1 24761C 19074BA  21325.13333322  .00004865  00000-0  32602-3 0  3258
2 24761  53.0538  72.6341 0001119  86.4112 138.3193 15.06389651    18
